{"type": "FeatureCollection", "features": [ {"type": "Feature", "properties": {"norad_id": 66809, "name": "STARLINK-35979", "group": "last-30-days", "lat": -41.52766975304065, "lon": 91.42141438382397, "alt_km": 394.1304151049162, "timestamp": "2025-12-21T09:37:21.372654+00:00", "meta": {"OBJECT_NAME": "STARLINK-35979", "OBJECT_ID": "2025-278U", "EPOCH": "2025-12-21T04:00:01.998720", "MEAN_MOTION": 15.59558819, "ECCENTRICITY": 0.0001613, "INCLINATION": 42.9988, "RA_OF_ASC_NODE": 200.9309, "ARG_OF_PERICENTER": 268.3973, "MEAN_ANOMALY": 111.7792, "EPHEMERIS_TYPE": 0, "CLASSIFICATION_TYPE": "U", "NORAD_CAT_ID": 66809, "ELEMENT_SET_NO": 999, "REV_AT_EPOCH": 431, "BSTAR": -0.027385, "MEAN_MOTION_DOT": -0.01967766, "MEAN_MOTION_DDOT": 0}, "tle": {"line1": "1 66809U 25278U   25355.16668980 -.01967766  00000+0 -27385-1 0  9996", "line2": "2 66809  42.9988 200.9309 0001613 268.3973 111.7792 15.59558819  4315"}}, "geometry": {"type": "Point", "coordinates": [91.42141438382397, -41.52766975304065]}}, {"type": "Feature", "properties": {"norad_id": 66810, "name": "STARLINK-36046", "group": "last-30-days", "lat": -40.609779772651876, "lon": 86.49865002739028, "alt_km": 394.0706745772068, "timestamp": "2025-12-21T09:37:21.372665+00:00", "meta": {"OBJECT_NAME": "STARLINK-36046", "OBJECT_ID": "2025-278V", "EPOCH": "2025-12-21T04:00:01.998720", "MEAN_MOTION": 15.59559534, "ECCENTRICITY": 0.0001694, "INCLINATION": 42.9995, "RA_OF_ASC_NODE": 200.942, "ARG_OF_PERICENTER": 269.9555, "MEAN_ANOMALY": 106.386, "EPHEMERIS_TYPE": 0, "CLASSIFICATION_TYPE": "U", "NORAD_CAT_ID": 66810, "ELEMENT_SET_NO": 999, "REV_AT_EPOCH": 408, "BSTAR": -0.027382, "MEAN_MOTION_DOT": -0.01967641, "MEAN_MOTION_DDOT": 0}, "tle": {"line1": "1 66810U 25278V   25355.16668980 -.01967641  00000+0 -27382-1 0  9997", "line2": "2 66810  42.9995 200.9420 0001694 269.9555 106.3860 15.59559534  4086"}}, "geometry": {"type": "Point", "coordinates": [86.49865002739028, -40.609779772651876]}}, {"type": "Feature", "properties": {"norad_id": 66811, "name": "STARLINK-36045", "group": "last-30-days", "lat": -41.094828197096014, "lon": 88.9427042821766, "alt_km": 394.07959113815286, "timestamp": "2025-12-21T09:37:21.372675+00:00", "meta": {"OBJECT_NAME": "STARLINK-36045", "OBJECT_ID": "2025-278W", "EPOCH": "2025-12-21T04:00:01.998720", "MEAN_MOTION": 15.59559803, "ECCENTRICITY": 0.000169, "INCLINATION": 42.999, "RA_OF_ASC_NODE": 200.9367, "ARG_OF_PERICENTER": 269.8765, "MEAN_ANOMALY": 108.3821, "EPHEMERIS_TYPE": 0, "CLASSIFICATION_TYPE": "U", "NORAD_CAT_ID": 66811, "ELEMENT_SET_NO": 999, "REV_AT_EPOCH": 431, "BSTAR": -0.027388, "MEAN_MOTION_DOT": -0.01968051, "MEAN_MOTION_DDOT": 0}, "tle": {"line1": "1 66811U 25278W   25355.16668980 -.01968051  00000+0 -27388-1 0  9990", "line2": "2 66811  42.9990 200.9367 0001690 269.8765 108.3821 15.59559803  4314"}}, "geometry": {"type": "Point", "coordinates": [88.9427042821766, -41.094828197096014]}}, {"type": "Feature", "properties": {"norad_id": 66812, "name": "STARLINK-36054", "group": "last-30-days", "lat": -41.90623760252287, "lon": 93.93053984288917, "alt_km": 394.0635101148955, "timestamp": "2025-12-21T09:37:21.372685+00:00", "meta": {"OBJECT_NAME": "STARLINK-36054", "OBJECT_ID": "2025-278X", "EPOCH": "2025-12-21T04:00:01.998720", "MEAN_MOTION": 15.5956015, "ECCENTRICITY": 0.000173, "INCLINATION": 42.9989, "RA_OF_ASC_NODE": 200.9271, "ARG_OF_PERICENTER": 269.7962, "MEAN_ANOMALY": 112.2961, "EPHEMERIS_TYPE": 0, "CLASSIFICATION_TYPE": "U", "NORAD_CAT_ID": 66812, "ELEMENT_SET_NO": 999, "REV_AT_EPOCH": 431, "BSTAR": -0.0274, "MEAN_MOTION_DOT": -0.0196888, "MEAN_MOTION_DDOT": 0}, "tle": {"line1": "1 66812U 25278X   25355.16668980 -.01968880  00000+0 -27400-1 0  9996", "line2": "2 66812  42.9989 200.9271 0001730 269.7962 112.2961 15.59560150  4316"}}, "geometry": {"type": "Point", "coordinates": [93.93053984288917, -41.90623760252287]}}, {"type": "Feature", "properties": {"norad_id": 66813, "name": "STARLINK-36042", "group": "last-30-days", "lat": -42.23003158888107, "lon": 96.46699017759742, "alt_km": 394.09233296217644, "timestamp": "2025-12-21T09:37:21.372695+00:00", "meta": {"OBJECT_NAME": "STARLINK-36042", "OBJECT_ID": "2025-278Y", "EPOCH": "2025-12-21T04:00:01.998720", "MEAN_MOTION": 15.59558343, "ECCENTRICITY": 0.0001708, "INCLINATION": 42.9995, "RA_OF_ASC_NODE": 200.9217, "ARG_OF_PERICENTER": 271.4932, "MEAN_ANOMALY": 112.5175, "EPHEMERIS_TYPE": 0, "CLASSIFICATION_TYPE": "U", "NORAD_CAT_ID": 66813, "ELEMENT_SET_NO": 999, "REV_AT_EPOCH": 431, "BSTAR": -0.027367, "MEAN_MOTION_DOT": -0.01966634, "MEAN_MOTION_DDOT": 0}, "tle": {"line1": "1 66813U 25278Y   25355.16668980 -.01966634  00000+0 -27367-1 0  9994", "line2": "2 66813  42.9995 200.9217 0001708 271.4932 112.5175 15.59558343  4317"}}, "geometry": {"type": "Point", "coordinates": [96.46699017759742, -42.23003158888107]}}, {"type": "Feature", "properties": {"norad_id": 66814, "name": "STARLINK-35984", "group": "last-30-days", "lat": -42.95063209843651, "lon": 112.03489492347434, "alt_km": 394.10448550121146, "timestamp": "2025-12-21T09:37:21.372708+00:00", "meta": {"OBJECT_NAME": "STARLINK-35984", "OBJECT_ID": "2025-278Z", "EPOCH": "2025-12-21T04:00:01.998720", "MEAN_MOTION": 15.5956115, "ECCENTRICITY": 0.000168, "INCLINATION": 42.9991, "RA_OF_ASC_NODE": 200.8922, "ARG_OF_PERICENTER": 268.8749, "MEAN_ANOMALY": 126.6361, "EPHEMERIS_TYPE": 0, "CLASSIFICATION_TYPE": "U", "NORAD_CAT_ID": 66814, "ELEMENT_SET_NO": 999, "REV_AT_EPOCH": 440, "BSTAR": -0.027407, "MEAN_MOTION_DOT": -0.01969296, "MEAN_MOTION_DDOT": 0}, "tle": {"line1": "1 66814U 25278Z   25355.16668980 -.01969296  00000+0 -27407-1 0  9997", "line2": "2 66814  42.9991 200.8922 0001680 268.8749 126.6361 15.59561150  4404"}}, "geometry": {"type": "Point", "coordinates": [112.03489492347434, -42.95063209843651]}}, {"type": "Feature", "properties": {"norad_id": 66815, "name": "STARLINK-35985", "group": "last-30-days", "lat": -42.97898332196591, "lon": 109.42177841758675, "alt_km": 394.0868086356022, "timestamp": "2025-12-21T09:37:21.372720+00:00", "meta": {"OBJECT_NAME": "STARLINK-35985", "OBJECT_ID": "2025-278AA", "EPOCH": "2025-12-21T04:00:01.998720", "MEAN_MOTION": 15.59559792, "ECCENTRICITY": 0.0001713, "INCLINATION": 42.9996, "RA_OF_ASC_NODE": 200.8971, "ARG_OF_PERICENTER": 272.3012, "MEAN_ANOMALY": 121.2938, "EPHEMERIS_TYPE": 0, "CLASSIFICATION_TYPE": "U", "NORAD_CAT_ID": 66815, "ELEMENT_SET_NO": 999, "REV_AT_EPOCH": 440, "BSTAR": -0.027387, "MEAN_MOTION_DOT": -0.01968022, "MEAN_MOTION_DDOT": 0}, "tle": {"line1": "1 66815U 25278AA  25355.16668980 -.01968022  00000+0 -27387-1 0  9991", "line2": "2 66815  42.9996 200.8971 0001713 272.3012 121.2938 15.59559792  4404"}}, "geometry": {"type": "Point", "coordinates": [109.42177841758675, -42.97898332196591]}}, {"type": "Feature", "properties": {"norad_id": 66816, "name": "STARLINK-36098", "group": "last-30-days", "lat": -42.49650418585424, "lon": 99.02808172404207, "alt_km": 394.06490419953843, "timestamp": "2025-12-21T09:37:21.372730+00:00", "meta": {"OBJECT_NAME": "STARLINK-36098", "OBJECT_ID": "2025-278AB", "EPOCH": "2025-12-21T04:00:01.998720", "MEAN_MOTION": 15.59560146, "ECCENTRICITY": 0.0001742, "INCLINATION": 42.9994, "RA_OF_ASC_NODE": 200.9167, "ARG_OF_PERICENTER": 270.6109, "MEAN_ANOMALY": 115.3154, "EPHEMERIS_TYPE": 0, "CLASSIFICATION_TYPE": "U", "NORAD_CAT_ID": 66816, "ELEMENT_SET_NO": 999, "REV_AT_EPOCH": 415, "BSTAR": -0.027396, "MEAN_MOTION_DOT": -0.01968607, "MEAN_MOTION_DDOT": 0}, "tle": {"line1": "1 66816U 25278AB  25355.16668980 -.01968607  00000+0 -27396-1 0  9991", "line2": "2 66816  42.9994 200.9167 0001742 270.6109 115.3154 15.59560146  4152"}}, "geometry": {"type": "Point", "coordinates": [99.02808172404207, -42.49650418585424]}}, {"type": "Feature", "properties": {"norad_id": 66817, "name": "STARLINK-35995", "group": "last-30-days", "lat": -42.855840593102464, "lon": 104.20442235551184, "alt_km": 394.05719138514087, "timestamp": "2025-12-21T09:37:21.372742+00:00", "meta": {"OBJECT_NAME": "STARLINK-35995", "OBJECT_ID": "2025-278AC", "EPOCH": "2025-12-21T04:00:01.998720", "MEAN_MOTION": 15.59558698, "ECCENTRICITY": 0.0001763, "INCLINATION": 42.9995, "RA_OF_ASC_NODE": 200.9067, "ARG_OF_PERICENTER": 271.6712, "MEAN_ANOMALY": 118.0904, "EPHEMERIS_TYPE": 0, "CLASSIFICATION_TYPE": "U", "NORAD_CAT_ID": 66817, "ELEMENT_SET_NO": 999, "REV_AT_EPOCH": 431, "BSTAR": -0.027377, "MEAN_MOTION_DOT": -0.01967321, "MEAN_MOTION_DDOT": 0}, "tle": {"line1": "1 66817U 25278AC  25355.16668980 -.01967321  00000+0 -27377-1 0  9993", "line2": "2 66817  42.9995 200.9067 0001763 271.6712 118.0904 15.59558698  4317"}}, "geometry": {"type": "Point", "coordinates": [104.20442235551184, -42.855840593102464]}}, {"type": "Feature", "properties": {"norad_id": 66818, "name": "STARLINK-35994", "group": "last-30-days", "lat": -42.70563080784386, "lon": 101.61269971448881, "alt_km": 394.07126759231414, "timestamp": "2025-12-21T09:37:21.372753+00:00", "meta": {"OBJECT_NAME": "STARLINK-35994", "OBJECT_ID": "2025-278AD", "EPOCH": "2025-12-21T04:00:01.998720", "MEAN_MOTION": 15.59558477, "ECCENTRICITY": 0.0001723, "INCLINATION": 42.9994, "RA_OF_ASC_NODE": 200.912, "ARG_OF_PERICENTER": 264.8772, "MEAN_ANOMALY": 122.9676, "EPHEMERIS_TYPE": 0, "CLASSIFICATION_TYPE": "U", "NORAD_CAT_ID": 66818, "ELEMENT_SET_NO": 999, "REV_AT_EPOCH": 431, "BSTAR": -0.02739, "MEAN_MOTION_DOT": -0.0196813, "MEAN_MOTION_DDOT": 0}, "tle": {"line1": "1 66818U 25278AD  25355.16668980 -.01968130  00000+0 -27390-1 0  9998", "line2": "2 66818  42.9994 200.9120 0001723 264.8772 122.9676 15.59558477  4318"}}, "geometry": {"type": "Point", "coordinates": [101.61269971448881, -42.70563080784386]}}]}